[{"OBJECT_NAME":"STARLINK-35497","OBJECT_ID":"2025-245H","EPOCH":"2026-03-07T00:50:27.415392","MEAN_MOTION":15.30199243,"ECCENTRICITY":0.00011478,"INCLINATION":53.1581,"RA_OF_ASC_NODE":295.9765,"ARG_OF_PERICENTER":71.4409,"MEAN_ANOMALY":288.6716,"EPHEMERIS_TYPE":0,"CLASSIFICATION_TYPE":"U","NORAD_CAT_ID":66241,"ELEMENT_SET_NO":999,"REV_AT_EPOCH":2080,"BSTAR":0.0011877402,"MEAN_MOTION_DOT":0.00034983,"MEAN_MOTION_DDOT":0},{"OBJECT_NAME":"STARLINK-35480","OBJECT_ID":"2025-245J","EPOCH":"2026-03-07T00:32:22.797312","MEAN_MOTION":15.30207038,"ECCENTRICITY":7.867e-5,"INCLINATION":53.1588,"RA_OF_ASC_NODE":296.6081,"ARG_OF_PERICENTER":90.317,"MEAN_ANOMALY":269.7921,"EPHEMERIS_TYPE":0,"CLASSIFICATION_TYPE":"U","NORAD_CAT_ID":66242,"ELEMENT_SET_NO":999,"REV_AT_EPOCH":2084,"BSTAR":0.0014407532,"MEAN_MOTION_DOT":0.00042566,"MEAN_MOTION_DDOT":0},{"OBJECT_NAME":"STARLINK-35495","OBJECT_ID":"2025-245K","EPOCH":"2026-03-07T00:45:54.365472","MEAN_MOTION":15.30190706,"ECCENTRICITY":8.461e-5,"INCLINATION":53.1578,"RA_OF_ASC_NODE":295.9572,"ARG_OF_PERICENTER":96.1485,"MEAN_ANOMALY":263.9613,"EPHEMERIS_TYPE":0,"CLASSIFICATION_TYPE":"U","NORAD_CAT_ID":66243,"ELEMENT_SET_NO":999,"REV_AT_EPOCH":2084,"BSTAR":0.00087130934,"MEAN_MOTION_DOT":0.00025528,"MEAN_MOTION_DDOT":0},{"OBJECT_NAME":"STARLINK-35517","OBJECT_ID":"2025-245L","EPOCH":"2026-03-07T00:36:46.658592","MEAN_MOTION":15.30214,"ECCENTRICITY":0.00011305,"INCLINATION":53.1586,"RA_OF_ASC_NODE":295.9165,"ARG_OF_PERICENTER":87.5264,"MEAN_ANOMALY":272.5866,"EPHEMERIS_TYPE":0,"CLASSIFICATION_TYPE":"U","NORAD_CAT_ID":66244,"ELEMENT_SET_NO":999,"REV_AT_EPOCH":2064,"BSTAR":0.0010383411,"MEAN_MOTION_DOT":0.00030533,"MEAN_MOTION_DDOT":0},{"OBJECT_NAME":"STARLINK-35503","OBJECT_ID":"2025-245M","EPOCH":"2026-03-07T00:27:49.157280","MEAN_MOTION":15.30209317,"ECCENTRICITY":0.00010996,"INCLINATION":53.1579,"RA_OF_ASC_NODE":296.5866,"ARG_OF_PERICENTER":83.9779,"MEAN_ANOMALY":276.1347,"EPHEMERIS_TYPE":0,"CLASSIFICATION_TYPE":"U","NORAD_CAT_ID":66245,"ELEMENT_SET_NO":999,"REV_AT_EPOCH":2079,"BSTAR":0.00054692239,"MEAN_MOTION_DOT":0.00015878,"MEAN_MOTION_DDOT":0},{"OBJECT_NAME":"STARLINK-35434","OBJECT_ID":"2025-245N","EPOCH":"2026-03-07T01:32:59.930592","MEAN_MOTION":15.30227684,"ECCENTRICITY":8.013e-5,"INCLINATION":53.1546,"RA_OF_ASC_NODE":296.1599,"ARG_OF_PERICENTER":87.2224,"MEAN_ANOMALY":272.8869,"EPHEMERIS_TYPE":0,"CLASSIFICATION_TYPE":"U","NORAD_CAT_ID":66246,"ELEMENT_SET_NO":999,"REV_AT_EPOCH":2064,"BSTAR":0.00091260782,"MEAN_MOTION_DOT":0.0002679,"MEAN_MOTION_DDOT":0},{"OBJECT_NAME":"STARLINK-35481","OBJECT_ID":"2025-245P","EPOCH":"2026-03-06T23:54:23.129856","MEAN_MOTION":15.30212672,"ECCENTRICITY":9.61e-5,"INCLINATION":53.1558,"RA_OF_ASC_NODE":296.4396,"ARG_OF_PERICENTER":98.9544,"MEAN_ANOMALY":261.1566,"EPHEMERIS_TYPE":0,"CLASSIFICATION_TYPE":"U","NORAD_CAT_ID":66247,"ELEMENT_SET_NO":999,"REV_AT_EPOCH":2084,"BSTAR":0.0011458247,"MEAN_MOTION_DOT":0.00033744,"MEAN_MOTION_DDOT":0},{"OBJECT_NAME":"STARLINK-35416","OBJECT_ID":"2025-245Q","EPOCH":"2026-03-07T01:23:53.060928","MEAN_MOTION":15.30232496,"ECCENTRICITY":0.00011911,"INCLINATION":53.1556,"RA_OF_ASC_NODE":296.118,"ARG_OF_PERICENTER":82.7955,"MEAN_ANOMALY":277.3181,"EPHEMERIS_TYPE":0,"CLASSIFICATION_TYPE":"U","NORAD_CAT_ID":66248,"ELEMENT_SET_NO":999,"REV_AT_EPOCH":2079,"BSTAR":0.0010038291,"MEAN_MOTION_DOT":0.00029519,"MEAN_MOTION_DDOT":0},{"OBJECT_NAME":"STARLINK-35304","OBJECT_ID":"2025-245R","EPOCH":"2026-03-07T01:05:38.731488","MEAN_MOTION":15.30203129,"ECCENTRICITY":0.0001049,"INCLINATION":53.158,"RA_OF_ASC_NODE":296.0379,"ARG_OF_PERICENTER":74.3533,"MEAN_ANOMALY":285.7583,"EPHEMERIS_TYPE":0,"CLASSIFICATION_TYPE":"U","NORAD_CAT_ID":66249,"ELEMENT_SET_NO":999,"REV_AT_EPOCH":2063,"BSTAR":0.00046950664,"MEAN_MOTION_DOT":0.00013573,"MEAN_MOTION_DDOT":0},{"OBJECT_NAME":"STARLINK-35338","OBJECT_ID":"2025-245S","EPOCH":"2026-03-07T01:19:20.273664","MEAN_MOTION":15.30242646,"ECCENTRICITY":9.233e-5,"INCLINATION":53.1542,"RA_OF_ASC_NODE":296.0996,"ARG_OF_PERICENTER":56.8687,"MEAN_ANOMALY":303.2402,"EPHEMERIS_TYPE":0,"CLASSIFICATION_TYPE":"U","NORAD_CAT_ID":66250,"ELEMENT_SET_NO":999,"REV_AT_EPOCH":2075,"BSTAR":0.0011906296,"MEAN_MOTION_DOT":0.00035117,"MEAN_MOTION_DDOT":0},{"OBJECT_NAME":"STARLINK-35485","OBJECT_ID":"2025-245T","EPOCH":"2026-03-07T01:10:12.270432","MEAN_MOTION":15.30209017,"ECCENTRICITY":9.174e-5,"INCLINATION":53.1569,"RA_OF_ASC_NODE":296.0581,"ARG_OF_PERICENTER":67.3677,"MEAN_ANOMALY":292.742,"EPHEMERIS_TYPE":0,"CLASSIFICATION_TYPE":"U","NORAD_CAT_ID":66251,"ELEMENT_SET_NO":999,"REV_AT_EPOCH":2063,"BSTAR":0.0011607087,"MEAN_MOTION_DOT":0.00034186,"MEAN_MOTION_DDOT":0},{"OBJECT_NAME":"STARLINK-35483","OBJECT_ID":"2025-245U","EPOCH":"2026-03-07T00:48:56.046528","MEAN_MOTION":15.30216716,"ECCENTRICITY":9.535e-5,"INCLINATION":53.1575,"RA_OF_ASC_NODE":295.9673,"ARG_OF_PERICENTER":76.0981,"MEAN_ANOMALY":284.0125,"EPHEMERIS_TYPE":0,"CLASSIFICATION_TYPE":"U","NORAD_CAT_ID":66252,"ELEMENT_SET_NO":999,"REV_AT_EPOCH":2080,"BSTAR":0.00099525033,"MEAN_MOTION_DOT":0.00029249,"MEAN_MOTION_DDOT":0},{"OBJECT_NAME":"STARLINK-35486","OBJECT_ID":"2025-245V","EPOCH":"2026-03-06T23:55:55.838784","MEAN_MOTION":15.30118258,"ECCENTRICITY":0.00012782,"INCLINATION":53.156,"RA_OF_ASC_NODE":296.4456,"ARG_OF_PERICENTER":94.7782,"MEAN_ANOMALY":265.3364,"EPHEMERIS_TYPE":0,"CLASSIFICATION_TYPE":"U","NORAD_CAT_ID":66253,"ELEMENT_SET_NO":999,"REV_AT_EPOCH":2063,"BSTAR":0.00032053436,"MEAN_MOTION_DOT":9.122e-5,"MEAN_MOTION_DDOT":0},{"OBJECT_NAME":"STARLINK-35488","OBJECT_ID":"2025-245W","EPOCH":"2026-03-06T22:26:23.633664","MEAN_MOTION":15.30251011,"ECCENTRICITY":0.00011961,"INCLINATION":53.1567,"RA_OF_ASC_NODE":296.7645,"ARG_OF_PERICENTER":98.7562,"MEAN_ANOMALY":261.3574,"EPHEMERIS_TYPE":0,"CLASSIFICATION_TYPE":"U","NORAD_CAT_ID":66254,"ELEMENT_SET_NO":999,"REV_AT_EPOCH":2083,"BSTAR":0.0013136625,"MEAN_MOTION_DOT":0.00038813,"MEAN_MOTION_DDOT":0},{"OBJECT_NAME":"STARLINK-35616","OBJECT_ID":"2025-245X","EPOCH":"2026-03-07T00:11:05.191872","MEAN_MOTION":15.30223298,"ECCENTRICITY":0.0002568,"INCLINATION":53.1585,"RA_OF_ASC_NODE":296.509,"ARG_OF_PERICENTER":213.86,"MEAN_ANOMALY":146.2237,"EPHEMERIS_TYPE":0,"CLASSIFICATION_TYPE":"U","NORAD_CAT_ID":66255,"ELEMENT_SET_NO":999,"REV_AT_EPOCH":2084,"BSTAR":0.0010004251,"MEAN_MOTION_DOT":0.0002941,"MEAN_MOTION_DDOT":0},{"OBJECT_NAME":"STARLINK-35619","OBJECT_ID":"2025-245Y","EPOCH":"2026-03-07T00:38:17.719872","MEAN_MOTION":15.30206429,"ECCENTRICITY":0.00010574,"INCLINATION":53.159,"RA_OF_ASC_NODE":295.9165,"ARG_OF_PERICENTER":76.5376,"MEAN_ANOMALY":283.5743,"EPHEMERIS_TYPE":0,"CLASSIFICATION_TYPE":"U","NORAD_CAT_ID":66256,"ELEMENT_SET_NO":999,"REV_AT_EPOCH":2085,"BSTAR":0.00080200776,"MEAN_MOTION_DOT":0.00023474,"MEAN_MOTION_DDOT":0}]
