STARLINK-35497          
1 66241U 25245H   26066.03503953  .00034983  00000+0  11877-2 0  9997
2 66241  53.1581 295.9765 0001147  71.4409 288.6716 15.30199243 20800
STARLINK-35480          
1 66242U 25245J   26066.02248608  .00042566  00000+0  14408-2 0  9999
2 66242  53.1588 296.6081 0000786  90.3170 269.7921 15.30207038 20844
STARLINK-35495          
1 66243U 25245K   26066.03187923  .00025528  00000+0  87131-3 0  9996
2 66243  53.1578 295.9572 0000846  96.1485 263.9613 15.30190706 20848
STARLINK-35517          
1 66244U 25245L   26066.02554003  .00030533  00000+0  10383-2 0  9999
2 66244  53.1586 295.9165 0001130  87.5264 272.5866 15.30214000 20640
STARLINK-35503          
1 66245U 25245M   26066.01931895  .00015878  00000+0  54692-3 0  9994
2 66245  53.1579 296.5866 0001099  83.9779 276.1347 15.30209317 20798
STARLINK-35434          
1 66246U 25245N   26066.06458253  .00026790  00000+0  91261-3 0  9990
2 66246  53.1546 296.1599 0000801  87.2224 272.8869 15.30227684 20647
STARLINK-35481          
1 66247U 25245P   26065.99610104  .00033744  00000+0  11458-2 0  9993
2 66247  53.1558 296.4396 0000961  98.9544 261.1566 15.30212672 20848
STARLINK-35416          
1 66248U 25245Q   26066.05825302  .00029519  00000+0  10038-2 0  9998
2 66248  53.1556 296.1180 0001191  82.7955 277.3181 15.30232496 20790
STARLINK-35304          
1 66249U 25245R   26066.04558717  .00013573  00000+0  46951-3 0  9998
2 66249  53.1580 296.0379 0001049  74.3533 285.7583 15.30203129 20631
STARLINK-35338          
1 66250U 25245S   26066.05509576  .00035117  00000+0  11906-2 0  9999
2 66250  53.1542 296.0996 0000923  56.8687 303.2402 15.30242646 20757
STARLINK-35485          
1 66251U 25245T   26066.04875313  .00034186  00000+0  11607-2 0  9997
2 66251  53.1569 296.0581 0000917  67.3677 292.7420 15.30209017 20630
STARLINK-35483          
1 66252U 25245U   26066.03398202  .00029249  00000+0  99525-3 0  9994
2 66252  53.1575 295.9673 0000953  76.0981 284.0125 15.30216716 20802
STARLINK-35486          
1 66253U 25245V   26065.99717406  .00009122  00000+0  32053-3 0  9991
2 66253  53.1560 296.4456 0001278  94.7782 265.3364 15.30118258 20639
STARLINK-35488          
1 66254U 25245W   26065.93499576  .00038813  00000+0  13137-2 0  9991
2 66254  53.1567 296.7645 0001196  98.7562 261.3574 15.30251011 20835
STARLINK-35616          
1 66255U 25245X   26066.00769898  .00029410  00000+0  10004-2 0  9991
2 66255  53.1585 296.5090 0002568 213.8600 146.2237 15.30223298 20849
STARLINK-35619          
1 66256U 25245Y   26066.02659398  .00023474  00000+0  80201-3 0  9998
2 66256  53.1590 295.9165 0001057  76.5376 283.5743 15.30206429 20853
